NORAD_CAT_ID,OBJECT_NAME,OBJECT_TYPE,EPOCH,MEAN_MOTION,ECCENTRICITY,INCLINATION,RA_OF_ASC_NODE,ARG_OF_PERICENTER,MEAN_ANOMALY,BSTAR,MEAN_MOTION_DOT,MEAN_MOTION_DDOT,TLE_LINE0,TLE_LINE1,TLE_LINE2,SEMIMAJOR_AXIS,PERIOD,APOGEE,PERIGEE,DECAYED
53749.0,STARLINK-4680,PAYLOAD,2024-04-25 07:48:43,15.11429823,0.0003604,53.2164,91.4936,56.2338,303.8998,0.00078229,0.00013102,0.0,0 STARLINK-4680,1 53749U 22107BB  24116.32550020  .00013102  00000-0  78229-3 0  9999,2 53749  53.2164  91.4936 0003604  56.2338 303.8998 15.11429823 90659,6909.976,95.274,534.331,529.35,0.0
53749.0,STARLINK-4680,PAYLOAD,2024-04-26 07:37:01,15.11465836,0.0003296,53.216,87.0202,64.0945,296.0387,0.0011125,0.00018791,0.0,0 STARLINK-4680,1 53749U 22107BB  24117.31738368  .00018791  00000-0  11125-2 0  9992,2 53749  53.2160  87.0202 0003296  64.0945 296.0387 15.11465836 91582,6909.866,95.272,534.008,529.453,0.0
53749.0,STARLINK-4680,PAYLOAD,2024-04-26 15:33:07,15.11508656,0.0003794,53.2172,85.5384,54.0755,306.059,0.0018803,0.00032063,0.0,0 STARLINK-4680,1 53749U 22107BB  24117.64799848  .00032063  00000-0  18803-2 0  9996,2 53749  53.2172  85.5384 0003794  54.0755 306.0590 15.11508656 90855,6909.735,95.269,534.222,528.979,0.0
53749.0,STARLINK-4680,PAYLOAD,2024-04-27 04:14:49,15.11575545,0.0003564,53.2168,83.1486,61.2039,298.9312,0.0021707,0.00037156,0.0,0 STARLINK-4680,1 53749U 22107BB  24118.17695794  .00037156  00000-0  21707-2 0  9995,2 53749  53.2168  83.1486 0003564  61.2039 298.9312 15.11575545 90938,6909.532,95.265,533.859,528.934,0.0
53749.0,STARLINK-4680,PAYLOAD,2024-04-27 07:25:14,15.11584095,0.0003529,53.2172,82.5523,62.6722,297.463,0.0018869,0.00032245,0.0,0 STARLINK-4680,1 53749U 22107BB  24118.30919658  .00032245  00000-0  18869-2 0  9997,2 53749  53.2172  82.5523 0003529  62.6722 297.4630 15.11584095 91739,6909.505,95.264,533.809,528.932,0.0
53749.0,STARLINK-4680,PAYLOAD,2024-04-28 04:03:01,15.11564267,0.0003477,53.2176,78.6772,59.5718,300.5618,6.1045e-05,7.51e-06,0.0,0 STARLINK-4680,1 53749U 22107BB  24119.16876400  .00000751  00000-0  61045-4 0  9992,2 53749  53.2176  78.6772 0003477  59.5718 300.5618 15.11564267 91086,6909.566,95.266,533.833,529.028,0.0
53749.0,STARLINK-4680,PAYLOAD,2024-04-28 07:13:27,15.11555924,0.000348,53.2177,78.0786,61.466,298.6684,8.7112e-05,1.198e-05,0.0,0 STARLINK-4680,1 53749U 22107BB  24119.30100871  .00001198  00000-0  87112-4 0  9999,2 53749  53.2177  78.0786 0003480  61.4660 298.6684 15.11555924 91886,6909.591,95.266,533.861,529.052,0.0
53749.0,STARLINK-4680,PAYLOAD,2024-04-28 21:30:22,15.11563271,0.0003497,53.2173,75.3989,62.6126,297.5223,-8.657e-05,-1.782e-05,0.0,0 STARLINK-4680,1 53749U 22107BB  24119.89609245 -.00001782  00000-0 -86570-4 0  9990,2 53749  53.2173  75.3989 0003497  62.6126 297.5223 15.11563271 91976,6909.569,95.266,533.85,529.018,0.0
53749.0,STARLINK-4680,PAYLOAD,2024-04-29 13:22:29,15.11576389,0.0003522,53.2183,72.4172,63.7193,296.4162,-3.1993e-05,-8.46e-06,0.0,0 STARLINK-4680,1 53749U 22107BB  24120.55728836 -.00000846  00000-0 -31993-4 0  9992,2 53749  53.2183  72.4172 0003522  63.7193 296.4162 15.11576389 91293,6909.529,95.265,533.827,528.96,0.0
53749.0,STARLINK-4680,PAYLOAD,2024-04-30 13:10:40,15.11580221,0.00035,53.2182,67.9458,64.2381,295.8973,0.00023893,3.807e-05,0.0,0 STARLINK-4680,1 53749U 22107BB  24121.54908157  .00003807  00000-0  23893-3 0  9995,2 53749  53.2182  67.9458 0003500  64.2381 295.8973 15.11580221 92226,6909.517,95.265,533.801,528.964,0.0
53749.0,STARLINK-4680,PAYLOAD,2024-05-01 03:27:34,15.1159759,0.0003455,53.218,65.2633,65.7782,294.3572,0.00026363,4.234e-05,0.0,0 STARLINK-4680,1 53749U 22107BB  24122.14414850  .00004234  00000-0  26363-3 0  9994,2 53749  53.2180  65.2633 0003455  65.7782 294.3572 15.11597590 91539,6909.464,95.263,533.717,528.942,0.0
53749.0,STARLINK-4680,PAYLOAD,2024-05-01 12:58:50,15.11608212,0.0003512,53.2186,63.4747,66.5624,293.5738,0.00032556,5.3e-05,0.0,0 STARLINK-4680,1 53749U 22107BB  24122.54085693  .00005300  00000-0  32556-3 0  9993,2 53749  53.2186  63.4747 0003512  66.5624 293.5738 15.11608212 92371,6909.432,95.263,533.724,528.87,0.0
53749.0,STARLINK-4680,PAYLOAD,2024-05-02 04:50:55,15.11638352,0.0003477,53.2172,60.4941,69.4978,290.6389,0.00056169,9.374e-05,0.0,0 STARLINK-4680,1 53749U 22107BB  24123.20203184  .00009374  00000-0  56169-3 0  9995,2 53749  53.2172  60.4941 0003477  69.4978 290.6389 15.11638352 91695,6909.34,95.261,533.608,528.803,0.0
53749.0,STARLINK-4680,PAYLOAD,2024-05-02 12:46:57,15.11650791,0.0003457,53.2171,59.0036,70.2669,289.8697,0.00065821,0.00011042,0.0,0 STARLINK-4680,1 53749U 22107BB  24123.53261521  .00011042  00000-0  65821-3 0  9990,2 53749  53.2171  59.0036 0003457  70.2669 289.8697 15.11650791 92524,6909.302,95.26,533.556,528.779,0.0
53749.0,STARLINK-4680,PAYLOAD,2024-05-03 04:39:01,15.11683564,0.0003454,53.2163,56.0224,72.0023,288.1346,0.0010778,0.00018306,0.0,0 STARLINK-4680,1 53749U 22107BB  24124.19377254  .00018306  00000-0  10778-2 0  9994,2 53749  53.2163  56.0224 0003454  72.0023 288.1346 15.11683564 91843,6909.202,95.258,533.454,528.681,0.0
53749.0,STARLINK-4680,PAYLOAD,2024-05-03 12:35:03,15.11694158,0.0003458,53.2164,54.5319,73.0628,287.0745,0.00096539,0.00016366,0.0,0 STARLINK-4680,1 53749U 22107BB  24124.52434703  .00016366  00000-0  96539-3 0  9998,2 53749  53.2164  54.5319 0003458  73.0628 287.0745 15.11694158 92672,6909.17,95.257,533.424,528.646,0.0
53749.0,STARLINK-4680,PAYLOAD,2024-05-03 18:55:52,15.11704309,0.000345,53.2161,53.3396,73.465,286.6722,0.00096734,0.00016404,0.0,0 STARLINK-4680,1 53749U 22107BB  24124.78880489  .00016404  00000-0  96734-3 0  9992,2 53749  53.2161  53.3396 0003450  73.4650 286.6722 15.11704309 92717,6909.139,95.257,533.388,528.621,0.0
53749.0,STARLINK-4680,PAYLOAD,2024-05-04 12:23:07,15.11732464,0.0003456,53.2163,50.0601,75.0582,285.0794,0.00097282,0.00016512,0.0,0 STARLINK-4680,1 53749U 22107BB  24125.51605401  .00016512  00000-0  97282-3 0  9992,2 53749  53.2163  50.0601 0003456  75.0582 285.0794 15.11732464 92041,6909.053,95.255,533.306,528.531,0.0
53749.0,STARLINK-4680,PAYLOAD,2024-05-05 04:15:08,15.11753669,0.0003428,53.2167,47.0787,76.0127,284.1248,0.00094336,0.00016012,0.0,0 STARLINK-4680,1 53749U 22107BB  24126.17718029  .00016012  00000-0  94336-3 0  9998,2 53749  53.2167  47.0787 0003428  76.0127 284.1248 15.11753669 92922,6908.989,95.254,533.222,528.485,0.0
53749.0,STARLINK-4680,PAYLOAD,2024-05-06 04:03:10,15.11750764,0.0003421,53.2181,42.6075,72.0412,288.0954,0.00065991,0.00011103,0.0,0 STARLINK-4680,1 53749U 22107BB  24127.16887430  .00011103  00000-0  65991-3 0  9992,2 53749  53.2181  42.6075 0003421  72.0412 288.0954 15.11750764 92295,6908.998,95.254,533.226,528.499,0.0
53749.0,STARLINK-4680,PAYLOAD,2024-05-06 11:59:11,15.11739961,0.0003465,53.2169,41.1157,74.0111,286.1264,0.00052642,8.791e-05,0.0,0 STARLINK-4680,1 53749U 22107BB  24127.49944067  .00008791  00000-0  52642-3 0  9996,2 53749  53.2169  41.1157 0003465  74.0111 286.1264 15.11739961 92347,6909.031,95.254,533.29,528.502,0.0
53749.0,STARLINK-4680,PAYLOAD,2024-05-06 21:30:24,15.11741336,0.0003502,53.2171,39.3278,74.3969,285.7411,0.0003631,5.969e-05,0.0,0 STARLINK-4680,1 53749U 22107BB  24127.89611882  .00005969  00000-0  36310-3 0  9994,2 53749  53.2171  39.3278 0003502  74.3969 285.7411 15.11741336 93180,6909.026,95.254,533.311,528.472,0.0
53749.0,STARLINK-4680,PAYLOAD,2024-05-07 03:51:13,15.11733872,0.0003311,53.217,38.1369,70.1931,289.9419,2.2095e-05,8.4e-07,0.0,0 STARLINK-4680,1 53749U 22107BB  24128.16057467  .00000084  00000-0  22095-4 0  9997,2 53749  53.2170  38.1369 0003311  70.1931 289.9419 15.11733872 92446,6909.049,95.255,533.202,528.627,0.0
53749.0,STARLINK-4680,PAYLOAD,2024-05-07 21:18:27,15.11739506,0.0003323,53.2168,34.8583,68.213,291.9217,0.00010782,1.562e-05,0.0,0 STARLINK-4680,1 53749U 22107BB  24128.88781475  .00001562  00000-0  10782-3 0  9990,2 53749  53.2168  34.8583 0003323  68.2130 291.9217 15.11739506 93334,6909.032,95.255,533.193,528.601,0.0
53749.0,STARLINK-4680,PAYLOAD,2024-05-08 03:39:15,15.11742177,0.0003287,53.2183,33.6672,70.2716,289.8631,0.00012471,1.854e-05,0.0,0 STARLINK-4680,1 53749U 22107BB  24129.15226554  .00001854  00000-0  12471-3 0  9994,2 53749  53.2183  33.6672 0003287  70.2716 289.8631 15.11742177 92590,6909.024,95.254,533.16,528.618,0.0
53749.0,STARLINK-4680,PAYLOAD,2024-05-08 22:41:41,15.11739099,0.0003058,53.2178,30.089,74.9666,285.1666,0.00012562,1.869e-05,0.0,0 STARLINK-4680,1 53749U 22107BB  24129.94562163  .00001869  00000-0  12562-3 0  9997,2 53749  53.2178  30.0890 0003058  74.9666 285.1666 15.11739099 93494,6909.033,95.255,533.011,528.785,0.0
53749.0,STARLINK-4680,PAYLOAD,2024-05-09 09:48:06,15.1173801,0.0003136,53.2179,28.0009,73.2272,286.9065,0.00011647,1.711e-05,0.0,0 STARLINK-4680,1 53749U 22107BB  24130.40841342  .00001711  00000-0  11647-3 0  9998,2 53749  53.2179  28.0009 0003136  73.2272 286.9065 15.11738010 92781,6909.036,95.255,533.068,528.735,0.0
53749.0,STARLINK-4680,PAYLOAD,2024-05-09 22:29:43,15.11749732,0.0002949,53.2174,25.615,69.9916,290.1394,5.2324e-05,6.05e-06,0.0,0 STARLINK-4680,1 53749U 22107BB  24130.93730926  .00000605  00000-0  52324-4 0  9990,2 53749  53.2174  25.6150 0002949  69.9916 290.1394 15.11749732 93645,6909.001,95.254,532.903,528.828,0.0
53749.0,STARLINK-4680,PAYLOAD,2024-05-10 03:15:19,15.11749347,0.0002897,53.2173,24.7208,73.477,286.6541,-8.4881e-06,-4.43e-06,0.0,0 STARLINK-4680,1 53749U 22107BB  24131.13564703 -.00000443  00000-0 -84881-5 0  9997,2 53749  53.2173  24.7208 0002897  73.4770 286.6541 15.11749347 92890,6909.002,95.254,532.868,528.865,0.0
53749.0,STARLINK-4680,PAYLOAD,2024-05-10 09:36:08,15.1175204,0.0002835,53.2184,23.5312,80.4846,279.6468,0.00013229,1.985e-05,0.0,0 STARLINK-4680,1 53749U 22107BB  24131.40009592  .00001985  00000-0  13229-3 0  9993,2 53749  53.2184  23.5312 0002835  80.4846 279.6468 15.11752040 93715,6908.994,95.254,532.817,528.9,0.0
